{
    "links": {
        "self": "http://www.neowsapp.com/rest/v1/neo/3726818?api_key=iIulBulltgU6a56xZRHN4H3l9WmuAYTsLGpBGhQ2"
    },
    "id": "3726818",
    "neo_reference_id": "3726818",
    "name": "(2015 RY2)",
    "designation": "2015 RY2",
    "nasa_jpl_url": "http://ssd.jpl.nasa.gov/sbdb.cgi?sstr=3726818",
    "absolute_magnitude_h": 22.2,
    "estimated_diameter": {
        "kilometers": {
            "estimated_diameter_min": 0.096506147,
            "estimated_diameter_max": 0.2157943048
        },
        "meters": {
            "estimated_diameter_min": 96.5061469579,
            "estimated_diameter_max": 215.7943048444
        },
        "miles": {
            "estimated_diameter_min": 0.059966121,
            "estimated_diameter_max": 0.134088323
        },
        "feet": {
            "estimated_diameter_min": 316.6212271853,
            "estimated_diameter_max": 707.9865871058
        }
    },
    "is_potentially_hazardous_asteroid": false,
    "close_approach_data": [
        {
            "close_approach_date": "2015-08-06",
            "close_approach_date_full": "2015-Aug-06 04:36",
            "epoch_date_close_approach": 1438835760000,
            "relative_velocity": {
                "kilometers_per_second": "12.42072912",
                "kilometers_per_hour": "44714.6248319118",
                "miles_per_hour": "27783.9289684732"
            },
            "miss_distance": {
                "astronomical": "0.1020067586",
                "lunar": "39.6806290954",
                "kilometers": "15259993.812164182",
                "miles": "9482120.4631104316"
            },
            "orbiting_body": "Earth"
        },
        {
            "close_approach_date": "2022-08-19",
            "close_approach_date_full": "2022-Aug-19 11:21",
            "epoch_date_close_approach": 1660908060000,
            "relative_velocity": {
                "kilometers_per_second": "18.4913592768",
                "kilometers_per_hour": "66568.8933964436",
                "miles_per_hour": "41363.3215662513"
            },
            "miss_distance": {
                "astronomical": "0.2959145822",
                "lunar": "115.1107724758",
                "kilometers": "44268191.199059914",
                "miles": "27506978.4955542532"
            },
            "orbiting_body": "Earth"
        }
    ],
    "orbital_data": {
        "orbit_id": "5",
        "orbit_determination_date": "2017-04-06 08:32:09",
        "first_observation_date": "2015-09-05",
        "last_observation_date": "2015-10-02",
        "data_arc_in_days": 27,
        "observations_used": 18,
        "orbit_uncertainty": "7",
        "minimum_orbit_intersection": ".0631931",
        "jupiter_tisserand_invariant": "3.971",
        "epoch_osculation": "2459000.5",
        "eccentricity": ".4706070645137391",
        "semi_major_axis": "1.764714951538926",
        "inclination": "5.662131922109752",
        "ascending_node_longitude": "342.2033440607187",
        "orbital_period": "856.2691054294514",
        "perihelion_distance": ".9342276284916867",
        "perihelion_argument": "277.7195538897595",
        "aphelion_distance": "2.595202274586165",
        "perihelion_time": "2458913.367771829538",
        "mean_anomaly": "36.63287854538937",
        "mean_motion": ".4204285752192897",
        "equinox": "J2000",
        "orbit_class": {
            "orbit_class_type": "APO",
            "orbit_class_description": "Near-Earth asteroid orbits which cross the Earth’s orbit similar to that of 1862 Apollo",
            "orbit_class_range": "a (semi-major axis) > 1.0 AU; q (perihelion) < 1.017 AU"
        }
    },
    "is_sentry_object": false
}